IRIDIUM 36 [-]          
1 24967U 97056C   24026.55576675  .00000781  00000+0  25921-3 0  9992
2 24967  86.3957  26.1351 0002121  93.3951 266.7489 14.36599690379319
IRIDIUM 38 [-]          
1 25043U 97069E   24027.16507298  .00000617  00000+0  20143-3 0  9994
2 25043  86.3930  86.3496 0002351  38.7627 321.3739 14.37070310373372
IRIDIUM 42 [-]          
1 25077U 97077A   24027.11985975  .00000703  00000+0  23837-3 0  9996
2 25077  86.3940  91.9233 0001912  74.4460 285.6947 14.35366573368436
IRIDIUM 44 [-]          
1 25078U 97077B   24026.62346931  .00000733  00000+0  23059-3 0  9994
2 25078  86.3920  75.4072 0000635 144.0953 216.0289 14.39179029370707
IRIDIUM 45 [-]          
1 25104U 97082A   24027.14594465  .00016993  00000+0  10334-2 0  9991
2 25104  86.3758 288.7145 0173569  35.3069 325.9510 14.98512728375808
IRIDIUM 24 [-]          
1 25105U 97082B   24027.16487370  .00000874  00000+0  26602-3 0  9997
2 25105  86.3918 295.0202 0010149 320.8116  39.2348 14.40957079370427
IRIDIUM 51 [-]          
1 25262U 98018A   24026.30004038  .00026332  00000+0  13668-2 0  9996
2 25262  86.3954 299.3434 0156515 349.0607  10.7235 15.05902194369877
